[{"OBJECT_NAME":"STARLINK-5818","OBJECT_ID":"2023-028AW","EPOCH":"2026-03-09T18:21:43.357824","MEAN_MOTION":14.98325825,"ECCENTRICITY":0.00030672,"INCLINATION":70.0002,"RA_OF_ASC_NODE":204.419,"ARG_OF_PERICENTER":270.5929,"MEAN_ANOMALY":89.4879,"EPHEMERIS_TYPE":0,"CLASSIFICATION_TYPE":"U","NORAD_CAT_ID":55785,"ELEMENT_SET_NO":999,"REV_AT_EPOCH":16703,"BSTAR":1.7276102e-5,"MEAN_MOTION_DOT":1.13e-6,"MEAN_MOTION_DDOT":0},{"OBJECT_NAME":"FENGYUN 1C DEB","OBJECT_ID":"1999-025DQF","EPOCH":"2026-03-09T11:13:08.013504","MEAN_MOTION":14.90370931,"ECCENTRICITY":0.01269339,"INCLINATION":98.9808,"RA_OF_ASC_NODE":67.5909,"ARG_OF_PERICENTER":49.019,"MEAN_ANOMALY":312.1923,"EPHEMERIS_TYPE":0,"CLASSIFICATION_TYPE":"U","NORAD_CAT_ID":35223,"ELEMENT_SET_NO":999,"REV_AT_EPOCH":95173,"BSTAR":0.00097388848,"MEAN_MOTION_DOT":0.00010982,"MEAN_MOTION_DDOT":0}]
